[{"OBJECT_NAME":"STARLINK-32815","OBJECT_ID":"2025-029J","EPOCH":"2026-03-09T17:08:42.965088","MEAN_MOTION":15.30209118,"ECCENTRICITY":9.504e-5,"INCLINATION":53.1599,"RA_OF_ASC_NODE":230.0527,"ARG_OF_PERICENTER":79.7685,"MEAN_ANOMALY":280.3423,"EPHEMERIS_TYPE":0,"CLASSIFICATION_TYPE":"U","NORAD_CAT_ID":62956,"ELEMENT_SET_NO":999,"REV_AT_EPOCH":6136,"BSTAR":0.001064232,"MEAN_MOTION_DOT":0.00031302,"MEAN_MOTION_DDOT":0},{"OBJECT_NAME":"GEOSCAN 3 (RS92S3)","OBJECT_ID":"2025-155T","EPOCH":"2026-03-09T22:52:10.587648","MEAN_MOTION":15.31696739,"ECCENTRICITY":0.00068078,"INCLINATION":97.4455,"RA_OF_ASC_NODE":37.9971,"ARG_OF_PERICENTER":154.1387,"MEAN_ANOMALY":206.0196,"EPHEMERIS_TYPE":0,"CLASSIFICATION_TYPE":"U","NORAD_CAT_ID":64893,"ELEMENT_SET_NO":999,"REV_AT_EPOCH":6564,"BSTAR":0.00078414081,"MEAN_MOTION_DOT":0.00023985,"MEAN_MOTION_DDOT":0}]
